NORAD_CAT_ID,OBJECT_NAME,OBJECT_TYPE,EPOCH,MEAN_MOTION,ECCENTRICITY,INCLINATION,RA_OF_ASC_NODE,ARG_OF_PERICENTER,MEAN_ANOMALY,BSTAR,MEAN_MOTION_DOT,MEAN_MOTION_DDOT,TLE_LINE0,TLE_LINE1,TLE_LINE2,SEMIMAJOR_AXIS,PERIOD,APOGEE,PERIGEE,DECAYED
52383.0,STARLINK-3811,PAYLOAD,2023-06-10 19:29:52,15.08841184,0.0001022,53.2176,1.2406,89.4014,270.7096,2.9593e-05,1.83e-06,0.0,0 STARLINK-3811,1 52383U 22045BE  23161.81240950  .00000183  00000-0  29593-4 0  9990,2 52383  53.2176   1.2406 0001022  89.4014 270.7096 15.08841184 64664,6917.877,95.437,540.449,539.035,0.0
52383.0,STARLINK-3811,PAYLOAD,2023-06-10 22:40:38,15.08844728,0.0001044,53.2178,0.6453,91.1163,268.9949,4.489e-05,4.27e-06,0.0,0 STARLINK-3811,1 52383U 22045BE  23161.94488651  .00000427  00000-0  44890-4 0  9994,2 52383  53.2178   0.6453 0001044  91.1163 268.9949 15.08844728 64685,6917.866,95.437,540.453,539.009,0.0
52383.0,STARLINK-3811,PAYLOAD,2023-06-11 12:59:06,15.08839971,0.0001166,53.2182,357.9693,83.9222,276.1903,8.791e-05,1.112e-05,0.0,0 STARLINK-3811,1 52383U 22045BE  23162.54104879  .00001112  00000-0  87910-4 0  9990,2 52383  53.2182 357.9693 0001166  83.9222 276.1903 15.08839971 64779,6917.88,95.438,540.552,538.939,0.0
52383.0,STARLINK-3811,PAYLOAD,2023-06-11 19:20:38,15.0884676,0.0001225,53.2177,356.7801,83.1868,276.9264,0.00011493,1.542e-05,0.0,0 STARLINK-3811,1 52383U 22045BE  23162.80600328  .00001542  00000-0  11493-3 0  9998,2 52383  53.2177 356.7801 0001225  83.1868 276.9264 15.08846760 64812,6917.86,95.437,540.572,538.877,0.0
52383.0,STARLINK-3811,PAYLOAD,2023-06-12 06:28:20,15.08844217,0.0001044,53.2173,354.6985,84.267,275.8441,7.9701e-05,9.81e-06,0.0,0 STARLINK-3811,1 52383U 22045BE  23163.26968440  .00000981  00000-0  79701-4 0  9994,2 52383  53.2173 354.6985 0001044  84.2670 275.8441 15.08844217 64887,6917.867,95.437,540.455,539.01,0.0
52383.0,STARLINK-3811,PAYLOAD,2023-06-12 19:11:26,15.08837561,0.0001036,53.2177,352.3194,83.1414,276.9695,4.4183e-06,-2.17e-06,0.0,0 STARLINK-3811,1 52383U 22045BE  23163.79961093 -.00000217  00000-0  44183-5 0  9999,2 52383  53.2177 352.3194 0001036  83.1414 276.9695 15.08837561 64969,6917.888,95.438,540.47,539.036,0.0
52383.0,STARLINK-3811,PAYLOAD,2023-06-12 22:22:12,15.08843368,0.0001116,53.2175,351.7238,84.7393,275.3726,3.0684e-05,2.01e-06,0.0,0 STARLINK-3811,1 52383U 22045BE  23163.93208665  .00000201  00000-0  30684-4 0  9996,2 52383  53.2175 351.7238 0001116  84.7393 275.3726 15.08843368 64983,6917.87,95.437,540.507,538.963,0.0
52383.0,STARLINK-3811,PAYLOAD,2023-06-13 19:02:13,15.08838617,0.0001107,53.2178,347.8597,79.0558,281.0558,-2.9141e-06,-3.34e-06,0.0,0 STARLINK-3811,1 52383U 22045BE  23164.79321072 -.00000334  00000-0 -29141-5 0  9995,2 52383  53.2178 347.8597 0001107  79.0558 281.0558 15.08838617 65114,6917.885,95.438,540.515,538.984,0.0
52383.0,STARLINK-3811,PAYLOAD,2023-06-14 12:31:28,15.08833979,0.0001169,53.2178,344.5875,84.2854,275.8271,4.3769e-05,4.09e-06,0.0,0 STARLINK-3811,1 52383U 22045BE  23165.52185316  .00000409  00000-0  43769-4 0  9998,2 52383  53.2178 344.5875 0001169  84.2854 275.8271 15.08833979 65223,6917.899,95.438,540.572,538.955,0.0
52383.0,STARLINK-3811,PAYLOAD,2023-06-14 20:28:23,15.08843767,0.0001152,53.2178,343.1013,81.0578,279.0545,6.5307e-05,7.52e-06,0.0,0 STARLINK-3811,1 52383U 22045BE  23165.85304668  .00000752  00000-0  65307-4 0  9990,2 52383  53.2178 343.1013 0001152  81.0578 279.0545 15.08843767 65273,6917.869,95.437,540.531,538.937,0.0
52383.0,STARLINK-3811,PAYLOAD,2023-06-14 22:03:46,15.08844222,0.0001155,53.2178,342.8039,80.7478,279.3645,6.6117e-05,7.65e-06,0.0,0 STARLINK-3811,1 52383U 22045BE  23165.91928627  .00000765  00000-0  66117-4 0  9998,2 52383  53.2178 342.8039 0001155  80.7478 279.3645 15.08844222 65287,6917.867,95.437,540.531,538.933,0.0
52383.0,STARLINK-3811,PAYLOAD,2023-06-15 10:46:52,15.08832863,0.0001217,53.2168,340.4252,89.5183,270.5948,3.6582e-05,2.94e-06,0.0,0 STARLINK-3811,1 52383U 22045BE  23166.44921503  .00000294  00000-0  36582-4 0  9993,2 52383  53.2168 340.4252 0001217  89.5183 270.5948 15.08832863 65362,6917.902,95.438,540.609,538.925,0.0
52383.0,STARLINK-3811,PAYLOAD,2023-06-15 12:22:15,15.08834821,0.000117,53.2177,340.1278,81.7572,278.3553,-1.6221e-05,-5.46e-06,0.0,0 STARLINK-3811,1 52383U 22045BE  23166.51545658 -.00000546  00000-0 -16221-4 0  9994,2 52383  53.2177 340.1278 0001170  81.7572 278.3553 15.08834821 65376,6917.896,95.438,540.571,538.952,0.0
52383.0,STARLINK-3811,PAYLOAD,2023-06-15 17:08:24,15.0883702,0.0001173,53.2173,339.2359,87.4168,272.6958,1.3551e-05,-7.2e-07,0.0,0 STARLINK-3811,1 52383U 22045BE  23166.71417414 -.00000072  00000-0  13551-4 0  9990,2 52383  53.2173 339.2359 0001173  87.4168 272.6958 15.08837020 65402,6917.889,95.438,540.566,538.943,0.0
52383.0,STARLINK-3811,PAYLOAD,2023-06-15 21:54:33,15.0884179,0.0001184,53.2181,338.3433,82.987,277.1257,3.7551e-05,3.1e-06,0.0,0 STARLINK-3811,1 52383U 22045BE  23166.91289038  .00000310  00000-0  37551-4 0  9991,2 52383  53.2181 338.3433 0001184  82.9870 277.1257 15.08841790 65430,6917.875,95.437,540.559,538.921,0.0
52383.0,STARLINK-3811,PAYLOAD,2023-06-16 12:13:01,15.08844514,0.0001087,53.2178,335.6674,84.3582,275.7534,4.8835e-05,4.9e-06,0.0,0 STARLINK-3811,1 52383U 22045BE  23167.50904869  .00000490  00000-0  48835-4 0  9999,2 52383  53.2178 335.6674 0001087  84.3582 275.7534 15.08844514 65520,6917.867,95.437,540.484,538.98,0.0
52383.0,STARLINK-3811,PAYLOAD,2023-06-16 20:09:56,15.08854518,0.0001123,53.2184,334.1799,83.4048,276.7072,0.00011096,1.479e-05,0.0,0 STARLINK-3811,1 52383U 22045BE  23167.84023872  .00001479  00000-0  11096-3 0  9998,2 52383  53.2184 334.1799 0001123  83.4048 276.7072 15.08854518 65575,6917.836,95.437,540.478,538.924,0.0
52383.0,STARLINK-3811,PAYLOAD,2023-06-17 10:28:26,15.08832848,0.0002135,53.2175,331.5046,76.2851,283.8378,3.9707e-05,3.44e-06,0.0,0 STARLINK-3811,1 52383U 22045BE  23168.43641808  .00000344  00000-0  39707-4 0  9999,2 52383  53.2175 331.5046 0002135  76.2851 283.8378 15.08832848 65667,6917.902,95.438,541.244,538.29,0.0
52383.0,STARLINK-3811,PAYLOAD,2023-06-17 13:39:13,15.08817848,0.0001246,53.2177,330.9096,78.7559,281.3573,-8.4334e-05,-1.629e-05,0.0,0 STARLINK-3811,1 52383U 22045BE  23168.56891014 -.00001629  00000-0 -84334-4 0  9994,2 52383  53.2177 330.9096 0001246  78.7559 281.3573 15.08817848 65686,6917.948,95.439,540.675,538.951,0.0
52383.0,STARLINK-3811,PAYLOAD,2023-06-17 15:14:36,15.08819374,0.0001091,53.218,330.6128,79.9986,280.1129,-7.7344e-05,-1.518e-05,0.0,0 STARLINK-3811,1 52383U 22045BE  23168.63514943 -.00001518  00000-0 -77344-4 0  9995,2 52383  53.2180 330.6128 0001091  79.9986 280.1129 15.08819374 65699,6917.943,95.439,540.563,539.054,0.0
52383.0,STARLINK-3811,PAYLOAD,2023-06-17 18:25:23,15.0882506,0.0001172,53.2182,330.0173,77.5773,282.535,-6.4033e-05,-1.306e-05,0.0,0 STARLINK-3811,1 52383U 22045BE  23168.76762763 -.00001306  00000-0 -64033-4 0  9990,2 52383  53.2182 330.0173 0001172  77.5773 282.5350 15.08825060 65717,6917.926,95.438,540.602,538.98,0.0
52383.0,STARLINK-3811,PAYLOAD,2023-06-18 03:57:41,15.08833975,0.0001146,53.2183,328.2332,79.0435,281.0686,1.5812e-05,-3.6e-07,0.0,0 STARLINK-3811,1 52383U 22045BE  23169.16506278 -.00000036  00000-0  15812-4 0  9991,2 52383  53.2183 328.2332 0001146  79.0435 281.0686 15.08833975 65773,6917.899,95.438,540.557,538.971,0.0
52383.0,STARLINK-3811,PAYLOAD,2023-06-18 10:19:13,15.08835781,0.0001166,53.2176,327.0432,75.8263,284.2859,6.5476e-05,7.54e-06,0.0,0 STARLINK-3811,1 52383U 22045BE  23169.43001961  .00000754  00000-0  65476-4 0  9997,2 52383  53.2176 327.0432 0001166  75.8263 284.2859 15.08835781 65817,6917.893,95.438,540.565,538.952,0.0
52383.0,STARLINK-3811,PAYLOAD,2023-06-18 16:40:45,15.08844954,0.0001132,53.2173,325.8547,73.7376,286.3741,0.0002135,3.112e-05,0.0,0 STARLINK-3811,1 52383U 22045BE  23169.69497618  .00003112  00000-0  21350-3 0  9996,2 52383  53.2173 325.8547 0001132  73.7376 286.3741 15.08844954 65851,6917.865,95.437,540.513,538.947,0.0
52383.0,STARLINK-3811,PAYLOAD,2023-06-19 10:10:00,15.08848635,0.0001211,53.2167,322.5839,66.0134,294.0985,0.00045315,6.933e-05,0.0,0 STARLINK-3811,1 52383U 22045BE  23170.42361968  .00006933  00000-0  45315-3 0  9998,2 52383  53.2167 322.5839 0001211  66.0134 294.0985 15.08848635 65965,6917.854,95.437,540.557,538.881,0.0
52383.0,STARLINK-3811,PAYLOAD,2023-06-19 11:45:23,15.08848775,0.000121,53.2168,322.2865,66.3115,293.8004,0.00042517,6.487e-05,0.0,0 STARLINK-3811,1 52383U 22045BE  23170.48985958  .00006487  00000-0  42517-3 0  9990,2 52383  53.2168 322.2865 0001210  66.3115 293.8004 15.08848775 65978,6917.854,95.437,540.556,538.882,0.0
52383.0,STARLINK-3811,PAYLOAD,2023-06-19 16:31:32,15.0885762,0.0001208,53.2167,321.3945,65.5223,294.5895,0.00057618,8.898e-05,0.0,0 STARLINK-3811,1 52383U 22045BE  23170.68857606  .00008898  00000-0  57618-3 0  9996,2 52383  53.2167 321.3945 0001208  65.5223 294.5895 15.08857620 66004,6917.827,95.436,540.527,538.856,0.0
52383.0,STARLINK-3811,PAYLOAD,2023-06-20 10:00:47,15.08844958,0.0001331,53.2187,318.1245,81.4703,278.644,0.00030474,4.566e-05,0.0,0 STARLINK-3811,1 52383U 22045BE  23171.41721665  .00004566  00000-0  30474-3 0  9992,2 52383  53.2187 318.1245 0001331  81.4703 278.6440 15.08844958 66111,6917.865,95.437,540.651,538.809,0.0
52383.0,STARLINK-3811,PAYLOAD,2023-06-20 13:11:33,15.08841749,0.0001112,53.2164,317.5278,93.4176,266.6943,-9.3162e-06,-4.36e-06,0.0,0 STARLINK-3811,1 52383U 22045BE  23171.54969599 -.00000436  00000-0 -93162-5 0  9995,2 52383  53.2164 317.5278 0001112  93.4176 266.6943 15.08841749 66131,6917.875,95.437,540.509,538.971,0.0
52383.0,STARLINK-3811,PAYLOAD,2023-06-21 13:02:20,15.0884526,0.0001086,53.217,313.0676,95.462,264.6496,0.00012805,1.751e-05,0.0,0 STARLINK-3811,1 52383U 22045BE  23172.54329501  .00001751  00000-0  12805-3 0  9991,2 52383  53.2170 313.0676 0001086  95.4620 264.6496 15.08845260 66286,6917.864,95.437,540.481,538.978,0.0
